STARLINK-35809          
1 66373U 25254AB  25329.09379025  .00171258  00000+0  11469-2 0  9995
2 66373  53.1585   2.4445 0001011  84.1242 275.9893 15.74252325  2907
STARLINK-35831          
1 66374U 25254AC  25329.09345218  .00119729  00000+0  80919-3 0  9995
2 66374  53.1583   2.4417 0001320  69.4639 290.6522 15.74218545  2903
STARLINK-35826          
1 66375U 25254AD  25329.09311367  .00166334  00000+0  11150-2 0  9998
2 66375  53.1586   2.4402 0000663  72.9954 287.1139 15.74245390  2902
SHIYAN-32 01            
1 66376U 25255A   25329.19261118  .00024985  00000+0  58514-3 0  9990
2 66376  52.9969 261.4323 0013214 347.5044  12.5630 15.41899165  2647
CZ-11 DEB               
1 66377U 25255B   25329.12172615  .00043773  00000+0  98478-3 0  9996
2 66377  52.9968 261.7017 0014098 344.9491  15.1092 15.42803389  2496
SHIYAN-32 02            
1 66378U 25255C   25329.18359515  .00046680  00000+0  10381-2 0  9995
2 66378  52.9982 261.3765 0013406 349.4609  10.6112 15.43127860  2501
SHIYAN-32 03            
1 66379U 25255D   25329.18882610  .00025947  00000+0  59957-3 0  9999
2 66379  52.9973 261.4096 0015190 348.3759  11.6892 15.42251317  2528
STARLINK-35139          
1 66380U 25257A   25329.08336806 -.01894743  00000+0 -18934-1 0  9992
2 66380  53.1600 348.5668 0001533  98.8780  65.9834 15.67962697  3592
STARLINK-35158          
1 66381U 25257B   25329.08336806 -.02018957  00000+0 -20275-1 0  9990
2 66381  53.1600 348.5621 0001547  82.5010  84.2333 15.68047050  3656
STARLINK-35639          
1 66382U 25257C   25329.08336806 -.01944224  00000+0 -19458-1 0  9996
2 66382  53.1599 348.5575 0001436  90.9999  77.6647 15.68007520  3650
STARLINK-35690          
1 66383U 25257D   25329.08336806 -.01948757  00000+0 -19504-1 0  9994
2 66383  53.1598 348.5497 0001403  86.6794  85.8114 15.68013944  3659
STARLINK-35662          
1 66384U 25257E   25329.08336806 -.01946463  00000+0 -19478-1 0  9997
2 66384  53.1598 348.5466 0001476  85.8245  88.5818 15.68013266  3656
STARLINK-35659          
1 66385U 25257F   25329.08336806 -.01945845  00000+0 -19472-1 0  9995
2 66385  53.1599 348.5544 0001536  88.8687  81.7067 15.68011509  3654
STARLINK-35651          
1 66386U 25257G   25329.08336806 -.01948301  00000+0 -19501-1 0  9999
2 66386  53.1602 348.5424 0001355  95.6075  80.7222 15.68011512  3659
STARLINK-35661          
1 66387U 25257H   25329.08336806 -.01944969  00000+0 -19462-1 0  9992
2 66387  53.1597 348.5383 0001505  91.3531  86.8892 15.68011790  3652
STARLINK-35647          
1 66388U 25257J   25329.08336806 -.01944430  00000+0 -19457-1 0  9990
2 66388  53.1597 348.5341 0001417  92.0335  88.1262 15.68011240  3655
STARLINK-35694          
1 66389U 25257K   25329.08336806 -.01947462  00000+0 -19490-1 0  9996
2 66389  53.1598 348.5297 0001481  90.6524  91.4231 15.68012983  3650
STARLINK-35665          
1 66390U 25257L   25329.08336806 -.01950776  00000+0 -19527-1 0  9991
2 66390  53.1594 348.4579 0001306  89.8064 126.7710 15.68015478  3752
STARLINK-35656          
1 66391U 25257M   25329.08336806 -.02155021  00000+0 -23792-1 0  9992
2 66391  53.1594 348.1456 0001095  90.5552 277.1833 15.65974020  3751
STARLINK-35671          
1 66392U 25257N   25329.08336806 -.01943003  00000+0 -19442-1 0  9994
2 66392  53.1596 348.5219 0001473  93.7341  92.1777 15.68009580  3650
STARLINK-35652          
1 66393U 25257P   25329.08336806 -.01945073  00000+0 -19465-1 0  9999
2 66393  53.1597 348.5263 0001464  89.0436  94.9509 15.68010395  3653
STARLINK-35672          
1 66394U 25257Q   25329.08336806 -.01946856  00000+0 -19485-1 0  9992
2 66394  53.1598 348.5178 0001391  90.6600  97.1680 15.68011680  3653
STARLINK-35681          
1 66395U 25257R   25329.08336806 -.01948446  00000+0 -19502-1 0  9990
2 66395  53.1599 348.5145 0001430  91.9578  97.7868 15.68012680  3498
STARLINK-35669          
1 66396U 25257S   25329.08336806 -.01947259  00000+0 -19491-1 0  9999
2 66396  53.1597 348.5098 0001372  98.0020  93.6637 15.68010265  3653
STARLINK-35510          
1 66397U 25257T   25329.08336806 -.01950012  00000+0 -19518-1 0  9991
2 66397  53.1595 348.5058 0001426  94.8663  98.7123 15.68013886  3653
STARLINK-35642          
1 66398U 25257U   25329.08336806 -.01948901  00000+0 -19508-1 0  9995
2 66398  53.1597 348.5016 0001343  92.6391 102.8571 15.68012504  3652
STARLINK-35657          
1 66399U 25257V   25329.08336806 -.01947417  00000+0 -19488-1 0  9994
2 66399  53.1598 348.4977 0001495  93.3223 104.0864 15.68013894  3651
STARLINK-35667          
1 66400U 25257W   25329.08336806 -.01946199  00000+0 -19478-1 0  9992
2 66400  53.1598 348.4893 0001412  92.8578 108.3887 15.68011087  3651
STARLINK-35668          
1 66401U 25257X   25329.08336806 -.01944056  00000+0 -19451-1 0  9994
2 66401  53.1597 348.4850 0001584  91.9029 111.2568 15.68011433  3659
STARLINK-35644          
1 66402U 25257Y   25329.08336806 -.01950609  00000+0 -19523-1 0  9996
2 66402  53.1599 348.4934 0001470  92.7262 106.5987 15.68016147  3656
STARLINK-35602          
1 66403U 25257Z   25329.08336806 -.01923728  00000+0 -19241-1 0  9996
2 66403  53.1597 348.4815 0001285  89.3032 115.7905 15.67990708  3659
STARLINK-35691          
1 66404U 25257AA  25329.08336806 -.01950579  00000+0 -19522-1 0  9993
2 66404  53.1600 348.4771 0001447  94.3062 112.6844 15.68017198  3657
STARLINK-35683          
1 66405U 25257AB  25329.08336806 -.01949040  00000+0 -19506-1 0  9997
2 66405  53.1595 348.4724 0001387  94.5406 114.3682 15.68015639  3507
STARLINK-34840          
1 66406U 25257AC  25328.83337963 -.01964519  00000+0 -18839-1 0  9991
2 66406  53.1599 349.6908 0001353  88.5438 153.7059 15.69070096  3560
STARLINK-35686          
1 66407U 25257AD  25329.08336806 -.01948593  00000+0 -19503-1 0  9998
2 66407  53.1597 348.4686 0001325  91.6211 119.2059 15.68014363  3653
STARLINK-35679          
1 66408U 25257AE  25329.08336806 -.01949883  00000+0 -19516-1 0  9996
2 66408  53.1594 348.4660 0001446  94.8345 117.9096 15.68014962  3651
CHUTIAN-2 A             
1 66409U 25256A   25329.19721326  .00000071  00000+0  29610-4 0  9996
2 66409  98.2784  34.2677 0012815 232.6984 127.3043 14.49903093  2335
CHUTIAN-2 B             
1 66410U 25256B   25329.19172971  .00000786  00000+0  20973-3 0  9999
2 66410  98.2813  34.2800 0012867 236.8391 123.1570 14.50989658  2335
ZK-1A R/B               
1 66411U 25256C   25324.72402141  .00011214  00000+0  48988-3 0  9993
2 66411  98.3243  30.9055 0232353 318.4537  39.9225 15.01236100  1741
HULIANWANG DIGUI 13A    
1 66412U 25258A   25328.24528102 -.00000274  00000+0 -49223-4 0  9993
2 66412  50.0068 339.8010 0013813 294.8670  65.0807 14.24073743  2021
HULIANWANG DIGUI 13B    
1 66413U 25258B   25329.02495539 -.00000245  00000+0 -37617-4 0  9990
2 66413  50.0027 336.5829 0013340 294.6742  65.2781 14.23477029  2131
HULIANWANG DIGUI 13C    
1 66414U 25258C   25329.02194837 -.00000241  00000+0 -35695-4 0  9998
2 66414  50.0051 336.5794 0013629 294.0776  65.8710 14.23502243  2136
HULIANWANG DIGUI 13D    
1 66415U 25258D   25326.56065765 -.00000188  00000+0 -11421-4 0  9993
2 66415  50.0048 346.8921 0013056 293.5399  66.4143 14.25899858  1788
HULIANWANG DIGUI 13E    
1 66416U 25258E   25329.02004130 -.00000234  00000+0 -32634-4 0  9998
2 66416  50.0051 336.5703 0012780 302.2952  57.6722 14.23463452  2133
HULIANWANG DIGUI 13F    
1 66417U 25258F   25328.03589257 -.00000248  00000+0 -38845-4 0  9992
2 66417  50.0012 340.6960 0014180 302.1508  57.8029 14.23484274  1994
HULIANWANG DIGUI 13G    
1 66418U 25258G   25328.24242631 -.00000212  00000+0 -22945-4 0  9993
2 66418  50.0038 339.7789 0012103 294.9809  64.9846 14.23812994  2021
HULIANWANG DIGUI 13H    
1 66419U 25258H   25328.31124417 -.00000199  00000+0 -17483-4 0  9998
2 66419  50.0021 339.4698 0011850 292.9000  67.0662 14.23625091  2030
HULIANWANG DIGUI 13J    
1 66420U 25258J   25326.34657421 -.00000172  00000+0 -47791-5 0  9994
2 66420  50.0028 347.7517 0010939 293.8228  66.1539 14.26346428  1747
CZ-12 R/B               
1 66421U 25258K   25329.05244204 -.00000080  00000+0  26673-4 0  9999
2 66421  49.9958 334.6979 0064637 185.8760 174.1409 14.42312349  2165
STARLINK-35617          
1 66422U 25259A   25329.08336806 -.00060816  00000+0 -39530-3 0  9993
2 66422  42.9993 151.5217 0001767 278.5803 289.4485 15.75058342  3445
STARLINK-35618          
1 66423U 25259B   25329.08336806 -.00081468  00000+0 -53193-3 0  9991
2 66423  42.9993 151.5168 0001788 274.0432 295.9119 15.75056794  3448
STARLINK-35588          
1 66424U 25259C   25329.08336806 -.00079295  00000+0 -51754-3 0  9998
2 66424  42.9995 151.5127 0001662 270.3801 301.4898 15.75056355  3446
STARLINK-35555          
1 66425U 25259D   25329.08336806 -.00070641  00000+0 -46035-3 0  9991
2 66425  42.9995 151.5064 0001169 282.7482 291.0397 15.75053135  3442
STARLINK-35589          
1 66426U 25259E   25329.08336806 -.00122559  00000+0 -80437-3 0  9992
2 66426  42.9995 151.5027 0002129 273.5041 302.1735 15.75092874  3441
STARLINK-35611          
1 66427U 25259F   25329.08336806 -.00057974  00000+0 -37655-3 0  9995
2 66427  42.9995 151.4974 0002061 272.8089 304.8046 15.75056948  3447
STARLINK-35610          
1 66428U 25259G   25329.08336806 -.00041905  00000+0 -27093-3 0  9998
2 66428  42.9995 151.4926 0001705 275.7751 303.7592 15.75047828  3448
STARLINK-35533          
1 66429U 25259H   25329.08336806 -.00075604  00000+0 -49299-3 0  9994
2 66429  43.0032 151.4861 0002122 277.4114 304.0307 15.75059217  3440
STARLINK-35470          
1 66430U 25259J   25329.08336806 -.00130602  00000+0 -85844-3 0  9992
2 66430  43.0032 151.4823 0001873 273.2366 310.1137 15.75087002  3447
STARLINK-35439          
1 66431U 25259K   25329.08336806 -.00148366  00000+0 -97717-3 0  9991
2 66431  43.0032 151.4764 0001728 263.3609 321.8962 15.75099363  3449
